<?xml version="1.0" encoding="UTF-8"?>
<gpx version="1.1" creator="OpenStreetMap Overpass API"
     xmlns="http://www.topografix.com/GPX/1/1"
     xmlns:xsi="http://www.w3.org/2001/XMLSchema-instance"
     xsi:schemaLocation="http://www.topografix.com/GPX/1/1 http://www.topografix.com/GPX/1/1/gpx.xsd">
  <metadata>
    <name>American Tobacco Trail</name>
    <desc>American Tobacco Trail cycling path near Cary/Apex NC. 22+ mile rail trail. Source: OpenStreetMap (ODbL)</desc>
    <author>
      <name>OpenStreetMap contributors</name>
    </author>
    <copyright author="OpenStreetMap contributors">
      <license>https://opendatacommons.org/licenses/odbl/1-0/</license>
    </copyright>
    <link href="https://www.openstreetmap.org">
      <text>OpenStreetMap</text>
    </link>
  </metadata>
  <trk>
    <name>American Tobacco Trail</name>
    <trkseg>
      <trkpt lat="35.7430486" lon="-78.9288576"/>
      <trkpt lat="35.7428838" lon="-78.9289694"/>
      <trkpt lat="35.7422844" lon="-78.9290859"/>
      <trkpt lat="35.7412891" lon="-78.9291924"/>
      <trkpt lat="35.7408327" lon="-78.9291805"/>
      <trkpt lat="35.7404546" lon="-78.9291602"/>
      <trkpt lat="35.7397447" lon="-78.9291012"/>
      <trkpt lat="35.7390441" lon="-78.9290386"/>
      <trkpt lat="35.7382331" lon="-78.9289226"/>
      <trkpt lat="35.7374299" lon="-78.9288299"/>
      <trkpt lat="35.7365830" lon="-78.9287503"/>
      <trkpt lat="35.7359803" lon="-78.9287564"/>
      <trkpt lat="35.7354990" lon="-78.9287918"/>
      <trkpt lat="35.7350932" lon="-78.9288604"/>
      <trkpt lat="35.7348636" lon="-78.9289196"/>
      <trkpt lat="35.7344846" lon="-78.9290007"/>
      <trkpt lat="35.7343617" lon="-78.9290309"/>
      <trkpt lat="35.7338195" lon="-78.9291771"/>
      <trkpt lat="35.7331197" lon="-78.9294931"/>
      <trkpt lat="35.7319440" lon="-78.9300240"/>
      <trkpt lat="35.7315257" lon="-78.9302198"/>
      <trkpt lat="35.7290057" lon="-78.9313498"/>
      <trkpt lat="35.7289946" lon="-78.9313548"/>
      <trkpt lat="35.7289584" lon="-78.9313718"/>
      <trkpt lat="35.7289191" lon="-78.9313907"/>
      <trkpt lat="35.7288094" lon="-78.9314290"/>
      <trkpt lat="35.7286960" lon="-78.9314746"/>
      <trkpt lat="35.7281487" lon="-78.9317233"/>
      <trkpt lat="35.7253665" lon="-78.9329875"/>
      <trkpt lat="35.7232585" lon="-78.9339257"/>
      <trkpt lat="35.7228729" lon="-78.9340916"/>
      <trkpt lat="35.7224164" lon="-78.9342967"/>
      <trkpt lat="35.7220891" lon="-78.9344694"/>
      <trkpt lat="35.7217797" lon="-78.9346507"/>
      <trkpt lat="35.7209477" lon="-78.9352554"/>
      <trkpt lat="35.7203482" lon="-78.9357889"/>
      <trkpt lat="35.7199735" lon="-78.9362135"/>
      <trkpt lat="35.7198339" lon="-78.9363716"/>
      <trkpt lat="35.7193897" lon="-78.9369339"/>
      <trkpt lat="35.7190390" lon="-78.9374759"/>
      <trkpt lat="35.7187805" lon="-78.9378943"/>
      <trkpt lat="35.7181357" lon="-78.9392662"/>
      <trkpt lat="35.7180114" lon="-78.9395284"/>
      <trkpt lat="35.7178786" lon="-78.9397593"/>
      <trkpt lat="35.7177770" lon="-78.9399305"/>
      <trkpt lat="35.7176402" lon="-78.9401226"/>
      <trkpt lat="35.7174215" lon="-78.9403974"/>
      <trkpt lat="35.7172932" lon="-78.9405466"/>
      <trkpt lat="35.7171289" lon="-78.9407017"/>
      <trkpt lat="35.7170249" lon="-78.9407991"/>
      <trkpt lat="35.7169253" lon="-78.9408720"/>
      <trkpt lat="35.7168412" lon="-78.9409371"/>
      <trkpt lat="35.7163740" lon="-78.9411862"/>
      <trkpt lat="35.7164086" lon="-78.9413756"/>
      <trkpt lat="35.7166071" lon="-78.9418898"/>
      <trkpt lat="35.7166916" lon="-78.9421136"/>
      <trkpt lat="35.7166144" lon="-78.9422105"/>
      <trkpt lat="35.7160053" lon="-78.9427109"/>
      <trkpt lat="35.7156823" lon="-78.9430099"/>
      <trkpt lat="35.7154505" lon="-78.9433389"/>
    </trkseg>
  </trk>
  <trk>
    <name>American Tobacco Trail</name>
    <trkseg>
      <trkpt lat="35.8014381" lon="-78.9260616"/>
      <trkpt lat="35.8013591" lon="-78.9260129"/>
      <trkpt lat="35.8010220" lon="-78.9258840"/>
      <trkpt lat="35.8008832" lon="-78.9258093"/>
      <trkpt lat="35.8005722" lon="-78.9255878"/>
      <trkpt lat="35.8000946" lon="-78.9252693"/>
      <trkpt lat="35.7994556" lon="-78.9249106"/>
      <trkpt lat="35.7985591" lon="-78.9244294"/>
      <trkpt lat="35.7955149" lon="-78.9228489"/>
      <trkpt lat="35.7944437" lon="-78.9223439"/>
      <trkpt lat="35.7944144" lon="-78.9223241"/>
      <trkpt lat="35.7943929" lon="-78.9223076"/>
      <trkpt lat="35.7942007" lon="-78.9222556"/>
      <trkpt lat="35.7940399" lon="-78.9222121"/>
      <trkpt lat="35.7931190" lon="-78.9219219"/>
      <trkpt lat="35.7924242" lon="-78.9218193"/>
      <trkpt lat="35.7917351" lon="-78.9217508"/>
      <trkpt lat="35.7913728" lon="-78.9217593"/>
      <trkpt lat="35.7911181" lon="-78.9217589"/>
      <trkpt lat="35.7893342" lon="-78.9218193"/>
      <trkpt lat="35.7885339" lon="-78.9218558"/>
      <trkpt lat="35.7877188" lon="-78.9218741"/>
      <trkpt lat="35.7868567" lon="-78.9219274"/>
      <trkpt lat="35.7865535" lon="-78.9219562"/>
      <trkpt lat="35.7857737" lon="-78.9221021"/>
      <trkpt lat="35.7847641" lon="-78.9223853"/>
      <trkpt lat="35.7844548" lon="-78.9223542"/>
      <trkpt lat="35.7844103" lon="-78.9223608"/>
      <trkpt lat="35.7843771" lon="-78.9223969"/>
      <trkpt lat="35.7843631" lon="-78.9224339"/>
      <trkpt lat="35.7843579" lon="-78.9224636"/>
      <trkpt lat="35.7843509" lon="-78.9225020"/>
      <trkpt lat="35.7843452" lon="-78.9225237"/>
      <trkpt lat="35.7843380" lon="-78.9225389"/>
      <trkpt lat="35.7843255" lon="-78.9225494"/>
      <trkpt lat="35.7815384" lon="-78.9234591"/>
      <trkpt lat="35.7803182" lon="-78.9238438"/>
      <trkpt lat="35.7797635" lon="-78.9240109"/>
      <trkpt lat="35.7795707" lon="-78.9240679"/>
      <trkpt lat="35.7788107" lon="-78.9242736"/>
      <trkpt lat="35.7785295" lon="-78.9243360"/>
      <trkpt lat="35.7782479" lon="-78.9243680"/>
      <trkpt lat="35.7777396" lon="-78.9244149"/>
      <trkpt lat="35.7776897" lon="-78.9244195"/>
      <trkpt lat="35.7770490" lon="-78.9244109"/>
      <trkpt lat="35.7760393" lon="-78.9243852"/>
      <trkpt lat="35.7751234" lon="-78.9241943"/>
      <trkpt lat="35.7736188" lon="-78.9238808"/>
      <trkpt lat="35.7735737" lon="-78.9238747"/>
      <trkpt lat="35.7735416" lon="-78.9238754"/>
      <trkpt lat="35.7705427" lon="-78.9232339"/>
      <trkpt lat="35.7688627" lon="-78.9228746"/>
      <trkpt lat="35.7647933" lon="-78.9220218"/>
      <trkpt lat="35.7644477" lon="-78.9219537"/>
      <trkpt lat="35.7641990" lon="-78.9219035"/>
    </trkseg>
  </trk>
  <trk>
    <name>American Tobacco Trail</name>
    <trkseg>
      <trkpt lat="35.7587207" lon="-78.9207523"/>
      <trkpt lat="35.7584879" lon="-78.9207044"/>
      <trkpt lat="35.7582695" lon="-78.9206580"/>
      <trkpt lat="35.7577226" lon="-78.9205402"/>
      <trkpt lat="35.7566645" lon="-78.9203426"/>
      <trkpt lat="35.7560872" lon="-78.9202834"/>
      <trkpt lat="35.7551673" lon="-78.9203424"/>
      <trkpt lat="35.7542893" lon="-78.9205057"/>
      <trkpt lat="35.7536997" lon="-78.9206996"/>
      <trkpt lat="35.7531830" lon="-78.9208967"/>
      <trkpt lat="35.7526530" lon="-78.9211524"/>
      <trkpt lat="35.7519190" lon="-78.9216183"/>
      <trkpt lat="35.7511618" lon="-78.9222051"/>
      <trkpt lat="35.7503109" lon="-78.9231609"/>
      <trkpt lat="35.7482750" lon="-78.9256430"/>
      <trkpt lat="35.7478637" lon="-78.9260980"/>
      <trkpt lat="35.7476524" lon="-78.9263244"/>
      <trkpt lat="35.7473923" lon="-78.9265635"/>
      <trkpt lat="35.7472816" lon="-78.9266590"/>
      <trkpt lat="35.7469324" lon="-78.9269667"/>
      <trkpt lat="35.7466001" lon="-78.9272378"/>
      <trkpt lat="35.7462140" lon="-78.9275349"/>
      <trkpt lat="35.7459513" lon="-78.9277111"/>
      <trkpt lat="35.7457111" lon="-78.9278692"/>
      <trkpt lat="35.7453685" lon="-78.9280658"/>
      <trkpt lat="35.7450081" lon="-78.9282512"/>
      <trkpt lat="35.7447014" lon="-78.9283975"/>
      <trkpt lat="35.7445268" lon="-78.9284713"/>
      <trkpt lat="35.7441116" lon="-78.9286219"/>
      <trkpt lat="35.7439437" lon="-78.9286769"/>
      <trkpt lat="35.7437778" lon="-78.9287111"/>
      <trkpt lat="35.7436597" lon="-78.9287243"/>
      <trkpt lat="35.7435144" lon="-78.9287304"/>
    </trkseg>
  </trk>
  <trk>
    <name>American Tobacco Trail</name>
    <trkseg>
      <trkpt lat="35.7641990" lon="-78.9219035"/>
      <trkpt lat="35.7635876" lon="-78.9217588"/>
      <trkpt lat="35.7632876" lon="-78.9217049"/>
      <trkpt lat="35.7621311" lon="-78.9214636"/>
      <trkpt lat="35.7611861" lon="-78.9212738"/>
      <trkpt lat="35.7611129" lon="-78.9212678"/>
      <trkpt lat="35.7610274" lon="-78.9212859"/>
      <trkpt lat="35.7610057" lon="-78.9213006"/>
      <trkpt lat="35.7609778" lon="-78.9213195"/>
      <trkpt lat="35.7609400" lon="-78.9213465"/>
      <trkpt lat="35.7608948" lon="-78.9213523"/>
      <trkpt lat="35.7608295" lon="-78.9213215"/>
      <trkpt lat="35.7606706" lon="-78.9211992"/>
      <trkpt lat="35.7605857" lon="-78.9211518"/>
      <trkpt lat="35.7604943" lon="-78.9211220"/>
      <trkpt lat="35.7587207" lon="-78.9207523"/>
    </trkseg>
  </trk>
  <trk>
    <name>American Tobacco Trail</name>
    <trkseg>
      <trkpt lat="35.7435144" lon="-78.9287304"/>
      <trkpt lat="35.7430486" lon="-78.9288576"/>
    </trkseg>
  </trk>
</gpx>