<?xml version="1.0" encoding="UTF-8"?>
<gpx version="1.1" creator="OpenStreetMap Overpass API"
     xmlns="http://www.topografix.com/GPX/1/1"
     xmlns:xsi="http://www.w3.org/2001/XMLSchema-instance"
     xsi:schemaLocation="http://www.topografix.com/GPX/1/1 http://www.topografix.com/GPX/1/1/gpx.xsd">
  <metadata>
    <name>Black Creek Greenway</name>
    <desc>Black Creek Greenway cycling path, Cary NC. 7.1 miles of paved trail. Source: OpenStreetMap (ODbL)</desc>
    <author>
      <name>OpenStreetMap contributors</name>
    </author>
    <copyright author="OpenStreetMap contributors">
      <license>https://opendatacommons.org/licenses/odbl/1-0/</license>
    </copyright>
    <link href="https://www.openstreetmap.org">
      <text>OpenStreetMap</text>
    </link>
  </metadata>
  <trk>
    <name>Black Creek Greenway</name>
    <trkseg>
      <trkpt lat="35.8246942" lon="-78.7837956"/>
      <trkpt lat="35.8247630" lon="-78.7837568"/>
      <trkpt lat="35.8248382" lon="-78.7837483"/>
      <trkpt lat="35.8248870" lon="-78.7837715"/>
      <trkpt lat="35.8249338" lon="-78.7838062"/>
      <trkpt lat="35.8250240" lon="-78.7839504"/>
      <trkpt lat="35.8250810" lon="-78.7840198"/>
      <trkpt lat="35.8251354" lon="-78.7840643"/>
      <trkpt lat="35.8251746" lon="-78.7840730"/>
      <trkpt lat="35.8252151" lon="-78.7840746"/>
      <trkpt lat="35.8252552" lon="-78.7840537"/>
      <trkpt lat="35.8253149" lon="-78.7839977"/>
      <trkpt lat="35.8253823" lon="-78.7839448"/>
      <trkpt lat="35.8254795" lon="-78.7838802"/>
      <trkpt lat="35.8255355" lon="-78.7838495"/>
      <trkpt lat="35.8255888" lon="-78.7838454"/>
      <trkpt lat="35.8256706" lon="-78.7838438"/>
      <trkpt lat="35.8259124" lon="-78.7838708"/>
      <trkpt lat="35.8260483" lon="-78.7838552"/>
      <trkpt lat="35.8261681" lon="-78.7838794"/>
      <trkpt lat="35.8263421" lon="-78.7839337"/>
      <trkpt lat="35.8264276" lon="-78.7839947"/>
      <trkpt lat="35.8266160" lon="-78.7842474"/>
      <trkpt lat="35.8267384" lon="-78.7844200"/>
      <trkpt lat="35.8268432" lon="-78.7846204"/>
      <trkpt lat="35.8269534" lon="-78.7848505"/>
      <trkpt lat="35.8270427" lon="-78.7849695"/>
      <trkpt lat="35.8270887" lon="-78.7849903"/>
      <trkpt lat="35.8271956" lon="-78.7850172"/>
      <trkpt lat="35.8273081" lon="-78.7849643"/>
      <trkpt lat="35.8274271" lon="-78.7849398"/>
      <trkpt lat="35.8275758" lon="-78.7848733"/>
      <trkpt lat="35.8278188" lon="-78.7848685"/>
      <trkpt lat="35.8279626" lon="-78.7847974"/>
      <trkpt lat="35.8280077" lon="-78.7848022"/>
      <trkpt lat="35.8280428" lon="-78.7848132"/>
      <trkpt lat="35.8281465" lon="-78.7849601"/>
      <trkpt lat="35.8282651" lon="-78.7850505"/>
      <trkpt lat="35.8284296" lon="-78.7851557"/>
      <trkpt lat="35.8286220" lon="-78.7852296"/>
      <trkpt lat="35.8288580" lon="-78.7853554"/>
      <trkpt lat="35.8291065" lon="-78.7854662"/>
      <trkpt lat="35.8293027" lon="-78.7855768"/>
      <trkpt lat="35.8293862" lon="-78.7855977"/>
      <trkpt lat="35.8294789" lon="-78.7856080"/>
      <trkpt lat="35.8296283" lon="-78.7856145"/>
      <trkpt lat="35.8296773" lon="-78.7856321"/>
      <trkpt lat="35.8297402" lon="-78.7856719"/>
      <trkpt lat="35.8298774" lon="-78.7857587"/>
      <trkpt lat="35.8299615" lon="-78.7857232"/>
      <trkpt lat="35.8300529" lon="-78.7856951"/>
      <trkpt lat="35.8303046" lon="-78.7858321"/>
      <trkpt lat="35.8303486" lon="-78.7858384"/>
      <trkpt lat="35.8303951" lon="-78.7858180"/>
      <trkpt lat="35.8304448" lon="-78.7858126"/>
      <trkpt lat="35.8304856" lon="-78.7858208"/>
      <trkpt lat="35.8305257" lon="-78.7858343"/>
      <trkpt lat="35.8305799" lon="-78.7858735"/>
      <trkpt lat="35.8305935" lon="-78.7858860"/>
      <trkpt lat="35.8306061" lon="-78.7858849"/>
      <trkpt lat="35.8307081" lon="-78.7858481"/>
      <trkpt lat="35.8310922" lon="-78.7858180"/>
      <trkpt lat="35.8313100" lon="-78.7856245"/>
      <trkpt lat="35.8314223" lon="-78.7856711"/>
      <trkpt lat="35.8316212" lon="-78.7857986"/>
      <trkpt lat="35.8320115" lon="-78.7858054"/>
      <trkpt lat="35.8320350" lon="-78.7858222"/>
      <trkpt lat="35.8322641" lon="-78.7859851"/>
      <trkpt lat="35.8323984" lon="-78.7860418"/>
      <trkpt lat="35.8326584" lon="-78.7862219"/>
      <trkpt lat="35.8327654" lon="-78.7862512"/>
      <trkpt lat="35.8328390" lon="-78.7862564"/>
      <trkpt lat="35.8330730" lon="-78.7862946"/>
      <trkpt lat="35.8331925" lon="-78.7863032"/>
      <trkpt lat="35.8332465" lon="-78.7863226"/>
      <trkpt lat="35.8332902" lon="-78.7863609"/>
      <trkpt lat="35.8333362" lon="-78.7864069"/>
      <trkpt lat="35.8334703" lon="-78.7865490"/>
      <trkpt lat="35.8335136" lon="-78.7865866"/>
      <trkpt lat="35.8335298" lon="-78.7865962"/>
      <trkpt lat="35.8335475" lon="-78.7866046"/>
      <trkpt lat="35.8335538" lon="-78.7866077"/>
      <trkpt lat="35.8336195" lon="-78.7866384"/>
      <trkpt lat="35.8336701" lon="-78.7866477"/>
      <trkpt lat="35.8337259" lon="-78.7866434"/>
      <trkpt lat="35.8337912" lon="-78.7866340"/>
      <trkpt lat="35.8338532" lon="-78.7866132"/>
      <trkpt lat="35.8338931" lon="-78.7865943"/>
      <trkpt lat="35.8339258" lon="-78.7865717"/>
      <trkpt lat="35.8339530" lon="-78.7865532"/>
      <trkpt lat="35.8341502" lon="-78.7864991"/>
      <trkpt lat="35.8342715" lon="-78.7864876"/>
      <trkpt lat="35.8344143" lon="-78.7864721"/>
      <trkpt lat="35.8345598" lon="-78.7864639"/>
      <trkpt lat="35.8347140" lon="-78.7864215"/>
      <trkpt lat="35.8348398" lon="-78.7863503"/>
      <trkpt lat="35.8348738" lon="-78.7863279"/>
      <trkpt lat="35.8349030" lon="-78.7863115"/>
      <trkpt lat="35.8349305" lon="-78.7863027"/>
      <trkpt lat="35.8349648" lon="-78.7862987"/>
      <trkpt lat="35.8351116" lon="-78.7862732"/>
      <trkpt lat="35.8351416" lon="-78.7862582"/>
      <trkpt lat="35.8351753" lon="-78.7862326"/>
      <trkpt lat="35.8351970" lon="-78.7862126"/>
      <trkpt lat="35.8352204" lon="-78.7861788"/>
      <trkpt lat="35.8352568" lon="-78.7861020"/>
      <trkpt lat="35.8353101" lon="-78.7859515"/>
      <trkpt lat="35.8354629" lon="-78.7856733"/>
      <trkpt lat="35.8354804" lon="-78.7856355"/>
      <trkpt lat="35.8355344" lon="-78.7855047"/>
      <trkpt lat="35.8355631" lon="-78.7854461"/>
      <trkpt lat="35.8355891" lon="-78.7853974"/>
      <trkpt lat="35.8356150" lon="-78.7853577"/>
      <trkpt lat="35.8356435" lon="-78.7853235"/>
      <trkpt lat="35.8356748" lon="-78.7853073"/>
      <trkpt lat="35.8357087" lon="-78.7852989"/>
      <trkpt lat="35.8357329" lon="-78.7853087"/>
      <trkpt lat="35.8357762" lon="-78.7853260"/>
      <trkpt lat="35.8358427" lon="-78.7853621"/>
      <trkpt lat="35.8358685" lon="-78.7853695"/>
      <trkpt lat="35.8358854" lon="-78.7853680"/>
      <trkpt lat="35.8359321" lon="-78.7853393"/>
      <trkpt lat="35.8362203" lon="-78.7851154"/>
      <trkpt lat="35.8362765" lon="-78.7850650"/>
      <trkpt lat="35.8363183" lon="-78.7849923"/>
      <trkpt lat="35.8363648" lon="-78.7848884"/>
      <trkpt lat="35.8364101" lon="-78.7846757"/>
      <trkpt lat="35.8364158" lon="-78.7846054"/>
      <trkpt lat="35.8363705" lon="-78.7845352"/>
      <trkpt lat="35.8363070" lon="-78.7844833"/>
      <trkpt lat="35.8362832" lon="-78.7844426"/>
      <trkpt lat="35.8362833" lon="-78.7844053"/>
      <trkpt lat="35.8363716" lon="-78.7843038"/>
      <trkpt lat="35.8365627" lon="-78.7841759"/>
      <trkpt lat="35.8371313" lon="-78.7837555"/>
      <trkpt lat="35.8373126" lon="-78.7836610"/>
      <trkpt lat="35.8374342" lon="-78.7835739"/>
      <trkpt lat="35.8375232" lon="-78.7834985"/>
      <trkpt lat="35.8376198" lon="-78.7834034"/>
      <trkpt lat="35.8377609" lon="-78.7832637"/>
      <trkpt lat="35.8381482" lon="-78.7829701"/>
      <trkpt lat="35.8385860" lon="-78.7826618"/>
      <trkpt lat="35.8390509" lon="-78.7823181"/>
      <trkpt lat="35.8390852" lon="-78.7822639"/>
      <trkpt lat="35.8391005" lon="-78.7821833"/>
      <trkpt lat="35.8391057" lon="-78.7821039"/>
      <trkpt lat="35.8391229" lon="-78.7820649"/>
    </trkseg>
  </trk>
  <trk>
    <name>Black Creek Greenway</name>
    <trkseg>
      <trkpt lat="35.8021109" lon="-78.7909933"/>
      <trkpt lat="35.8021478" lon="-78.7910674"/>
      <trkpt lat="35.8023159" lon="-78.7913773"/>
      <trkpt lat="35.8023869" lon="-78.7915469"/>
      <trkpt lat="35.8025206" lon="-78.7918861"/>
      <trkpt lat="35.8025507" lon="-78.7919241"/>
      <trkpt lat="35.8025871" lon="-78.7919490"/>
      <trkpt lat="35.8027367" lon="-78.7920024"/>
      <trkpt lat="35.8028943" lon="-78.7920416"/>
      <trkpt lat="35.8030150" lon="-78.7920506"/>
      <trkpt lat="35.8030868" lon="-78.7920391"/>
      <trkpt lat="35.8031734" lon="-78.7920161"/>
      <trkpt lat="35.8032524" lon="-78.7919654"/>
      <trkpt lat="35.8033044" lon="-78.7918752"/>
      <trkpt lat="35.8033295" lon="-78.7917763"/>
      <trkpt lat="35.8033203" lon="-78.7916946"/>
      <trkpt lat="35.8032910" lon="-78.7916220"/>
      <trkpt lat="35.8032842" lon="-78.7916111"/>
      <trkpt lat="35.8031370" lon="-78.7914158"/>
      <trkpt lat="35.8030799" lon="-78.7913320"/>
      <trkpt lat="35.8030442" lon="-78.7912512"/>
      <trkpt lat="35.8030046" lon="-78.7911124"/>
      <trkpt lat="35.8029869" lon="-78.7910209"/>
      <trkpt lat="35.8029743" lon="-78.7909302"/>
      <trkpt lat="35.8029488" lon="-78.7899975"/>
      <trkpt lat="35.8030777" lon="-78.7897275"/>
      <trkpt lat="35.8033235" lon="-78.7894104"/>
      <trkpt lat="35.8035360" lon="-78.7892735"/>
      <trkpt lat="35.8037252" lon="-78.7891707"/>
      <trkpt lat="35.8043275" lon="-78.7890266"/>
      <trkpt lat="35.8046282" lon="-78.7890379"/>
      <trkpt lat="35.8050618" lon="-78.7891046"/>
      <trkpt lat="35.8051575" lon="-78.7891085"/>
      <trkpt lat="35.8052616" lon="-78.7891036"/>
      <trkpt lat="35.8053807" lon="-78.7890812"/>
      <trkpt lat="35.8054561" lon="-78.7890440"/>
      <trkpt lat="35.8055200" lon="-78.7889888"/>
      <trkpt lat="35.8055577" lon="-78.7889343"/>
      <trkpt lat="35.8055981" lon="-78.7888489"/>
      <trkpt lat="35.8056733" lon="-78.7884338"/>
      <trkpt lat="35.8057030" lon="-78.7883086"/>
      <trkpt lat="35.8057431" lon="-78.7882370"/>
      <trkpt lat="35.8057913" lon="-78.7881713"/>
      <trkpt lat="35.8060872" lon="-78.7879280"/>
      <trkpt lat="35.8062083" lon="-78.7879032"/>
      <trkpt lat="35.8064269" lon="-78.7878728"/>
      <trkpt lat="35.8066445" lon="-78.7878577"/>
      <trkpt lat="35.8067050" lon="-78.7878559"/>
      <trkpt lat="35.8067623" lon="-78.7878646"/>
      <trkpt lat="35.8070371" lon="-78.7880336"/>
      <trkpt lat="35.8071386" lon="-78.7880508"/>
      <trkpt lat="35.8072565" lon="-78.7880244"/>
      <trkpt lat="35.8073461" lon="-78.7879926"/>
      <trkpt lat="35.8075410" lon="-78.7879113"/>
      <trkpt lat="35.8077869" lon="-78.7878861"/>
      <trkpt lat="35.8081357" lon="-78.7879071"/>
      <trkpt lat="35.8082614" lon="-78.7879637"/>
      <trkpt lat="35.8083221" lon="-78.7880118"/>
      <trkpt lat="35.8084135" lon="-78.7880841"/>
      <trkpt lat="35.8085142" lon="-78.7882598"/>
      <trkpt lat="35.8085969" lon="-78.7885205"/>
      <trkpt lat="35.8087333" lon="-78.7885793"/>
      <trkpt lat="35.8088530" lon="-78.7885765"/>
      <trkpt lat="35.8089253" lon="-78.7885755"/>
      <trkpt lat="35.8089318" lon="-78.7885754"/>
      <trkpt lat="35.8091685" lon="-78.7885859"/>
      <trkpt lat="35.8095458" lon="-78.7887074"/>
      <trkpt lat="35.8102742" lon="-78.7887422"/>
      <trkpt lat="35.8104609" lon="-78.7886232"/>
      <trkpt lat="35.8105902" lon="-78.7884890"/>
      <trkpt lat="35.8106706" lon="-78.7884145"/>
      <trkpt lat="35.8107579" lon="-78.7883864"/>
      <trkpt lat="35.8107695" lon="-78.7883872"/>
      <trkpt lat="35.8108507" lon="-78.7883929"/>
      <trkpt lat="35.8109935" lon="-78.7884030"/>
      <trkpt lat="35.8111452" lon="-78.7883334"/>
      <trkpt lat="35.8112310" lon="-78.7882771"/>
      <trkpt lat="35.8113156" lon="-78.7882354"/>
      <trkpt lat="35.8114365" lon="-78.7881659"/>
      <trkpt lat="35.8115805" lon="-78.7880772"/>
      <trkpt lat="35.8116957" lon="-78.7880123"/>
      <trkpt lat="35.8117368" lon="-78.7880164"/>
      <trkpt lat="35.8117885" lon="-78.7880136"/>
      <trkpt lat="35.8118417" lon="-78.7880060"/>
      <trkpt lat="35.8118640" lon="-78.7880068"/>
      <trkpt lat="35.8118610" lon="-78.7878954"/>
      <trkpt lat="35.8118510" lon="-78.7877874"/>
      <trkpt lat="35.8118241" lon="-78.7876337"/>
      <trkpt lat="35.8118002" lon="-78.7875453"/>
      <trkpt lat="35.8117738" lon="-78.7874661"/>
      <trkpt lat="35.8117285" lon="-78.7873490"/>
      <trkpt lat="35.8117015" lon="-78.7872886"/>
      <trkpt lat="35.8115265" lon="-78.7869980"/>
      <trkpt lat="35.8114128" lon="-78.7868011"/>
      <trkpt lat="35.8113349" lon="-78.7866272"/>
      <trkpt lat="35.8112496" lon="-78.7863761"/>
      <trkpt lat="35.8111994" lon="-78.7861719"/>
      <trkpt lat="35.8111821" lon="-78.7860672"/>
      <trkpt lat="35.8111608" lon="-78.7859037"/>
      <trkpt lat="35.8111401" lon="-78.7855278"/>
      <trkpt lat="35.8111296" lon="-78.7853720"/>
      <trkpt lat="35.8111229" lon="-78.7852237"/>
      <trkpt lat="35.8111035" lon="-78.7847695"/>
      <trkpt lat="35.8110796" lon="-78.7846388"/>
      <trkpt lat="35.8110458" lon="-78.7844909"/>
      <trkpt lat="35.8110062" lon="-78.7843621"/>
      <trkpt lat="35.8108885" lon="-78.7841154"/>
      <trkpt lat="35.8107701" lon="-78.7838964"/>
      <trkpt lat="35.8107226" lon="-78.7837936"/>
      <trkpt lat="35.8107034" lon="-78.7837150"/>
      <trkpt lat="35.8106788" lon="-78.7836149"/>
      <trkpt lat="35.8106659" lon="-78.7835213"/>
      <trkpt lat="35.8106648" lon="-78.7834073"/>
      <trkpt lat="35.8106712" lon="-78.7831145"/>
      <trkpt lat="35.8106845" lon="-78.7826735"/>
      <trkpt lat="35.8106856" lon="-78.7825479"/>
      <trkpt lat="35.8106772" lon="-78.7824900"/>
      <trkpt lat="35.8106700" lon="-78.7824401"/>
      <trkpt lat="35.8106458" lon="-78.7824452"/>
      <trkpt lat="35.8106071" lon="-78.7824533"/>
    </trkseg>
  </trk>
  <trk>
    <name>Black Creek Greenway</name>
    <trkseg>
      <trkpt lat="35.7878839" lon="-78.8096732"/>
      <trkpt lat="35.7879120" lon="-78.8096756"/>
      <trkpt lat="35.7879385" lon="-78.8096845"/>
      <trkpt lat="35.7883946" lon="-78.8096625"/>
      <trkpt lat="35.7886100" lon="-78.8096525"/>
      <trkpt lat="35.7886100" lon="-78.8091678"/>
      <trkpt lat="35.7885887" lon="-78.8088968"/>
      <trkpt lat="35.7885194" lon="-78.8086090"/>
      <trkpt lat="35.7884068" lon="-78.8081789"/>
      <trkpt lat="35.7883911" lon="-78.8079787"/>
      <trkpt lat="35.7883988" lon="-78.8077936"/>
      <trkpt lat="35.7884250" lon="-78.8076799"/>
      <trkpt lat="35.7884621" lon="-78.8075716"/>
      <trkpt lat="35.7885494" lon="-78.8073748"/>
      <trkpt lat="35.7886714" lon="-78.8071470"/>
      <trkpt lat="35.7886832" lon="-78.8070518"/>
      <trkpt lat="35.7887062" lon="-78.8067023"/>
      <trkpt lat="35.7887216" lon="-78.8066381"/>
      <trkpt lat="35.7887407" lon="-78.8065795"/>
      <trkpt lat="35.7887780" lon="-78.8065276"/>
      <trkpt lat="35.7888205" lon="-78.8064793"/>
      <trkpt lat="35.7889305" lon="-78.8064167"/>
      <trkpt lat="35.7890358" lon="-78.8063874"/>
      <trkpt lat="35.7892844" lon="-78.8063258"/>
      <trkpt lat="35.7895441" lon="-78.8062892"/>
      <trkpt lat="35.7897738" lon="-78.8062566"/>
      <trkpt lat="35.7898291" lon="-78.8062357"/>
      <trkpt lat="35.7898769" lon="-78.8062080"/>
      <trkpt lat="35.7899801" lon="-78.8061490"/>
      <trkpt lat="35.7901632" lon="-78.8060136"/>
      <trkpt lat="35.7902130" lon="-78.8059929"/>
      <trkpt lat="35.7902866" lon="-78.8059723"/>
      <trkpt lat="35.7903544" lon="-78.8059742"/>
      <trkpt lat="35.7906346" lon="-78.8060216"/>
      <trkpt lat="35.7907350" lon="-78.8060190"/>
      <trkpt lat="35.7907842" lon="-78.8059967"/>
      <trkpt lat="35.7908222" lon="-78.8059704"/>
      <trkpt lat="35.7908523" lon="-78.8059193"/>
      <trkpt lat="35.7909193" lon="-78.8056936"/>
      <trkpt lat="35.7909199" lon="-78.8056396"/>
      <trkpt lat="35.7909125" lon="-78.8055935"/>
      <trkpt lat="35.7908901" lon="-78.8055306"/>
      <trkpt lat="35.7908459" lon="-78.8055024"/>
      <trkpt lat="35.7905840" lon="-78.8053291"/>
      <trkpt lat="35.7905276" lon="-78.8052840"/>
      <trkpt lat="35.7905040" lon="-78.8052593"/>
      <trkpt lat="35.7904890" lon="-78.8052292"/>
      <trkpt lat="35.7904858" lon="-78.8051417"/>
      <trkpt lat="35.7904998" lon="-78.8047499"/>
      <trkpt lat="35.7905096" lon="-78.8045068"/>
      <trkpt lat="35.7905162" lon="-78.8043822"/>
      <trkpt lat="35.7905320" lon="-78.8042555"/>
      <trkpt lat="35.7905434" lon="-78.8041622"/>
      <trkpt lat="35.7905598" lon="-78.8040871"/>
      <trkpt lat="35.7905838" lon="-78.8040168"/>
      <trkpt lat="35.7906196" lon="-78.8039288"/>
      <trkpt lat="35.7909313" lon="-78.8032988"/>
      <trkpt lat="35.7910498" lon="-78.8030948"/>
      <trkpt lat="35.7912555" lon="-78.8026926"/>
      <trkpt lat="35.7914049" lon="-78.8023825"/>
      <trkpt lat="35.7916758" lon="-78.8017820"/>
      <trkpt lat="35.7917313" lon="-78.8016833"/>
      <trkpt lat="35.7917875" lon="-78.8016197"/>
      <trkpt lat="35.7918474" lon="-78.8015806"/>
      <trkpt lat="35.7918940" lon="-78.8015252"/>
      <trkpt lat="35.7919430" lon="-78.8014948"/>
      <trkpt lat="35.7919936" lon="-78.8014779"/>
      <trkpt lat="35.7920925" lon="-78.8014628"/>
      <trkpt lat="35.7922143" lon="-78.8014597"/>
      <trkpt lat="35.7922956" lon="-78.8014736"/>
      <trkpt lat="35.7923512" lon="-78.8014929"/>
      <trkpt lat="35.7923831" lon="-78.8015209"/>
      <trkpt lat="35.7924377" lon="-78.8015885"/>
      <trkpt lat="35.7924841" lon="-78.8016317"/>
      <trkpt lat="35.7925617" lon="-78.8016561"/>
      <trkpt lat="35.7925975" lon="-78.8016646"/>
      <trkpt lat="35.7926679" lon="-78.8016814"/>
      <trkpt lat="35.7927549" lon="-78.8016850"/>
      <trkpt lat="35.7928405" lon="-78.8016801"/>
      <trkpt lat="35.7931681" lon="-78.8016463"/>
      <trkpt lat="35.7938580" lon="-78.8015897"/>
      <trkpt lat="35.7941025" lon="-78.8015815"/>
      <trkpt lat="35.7943133" lon="-78.8015753"/>
      <trkpt lat="35.7943752" lon="-78.8015667"/>
      <trkpt lat="35.7944091" lon="-78.8015560"/>
      <trkpt lat="35.7944347" lon="-78.8015448"/>
      <trkpt lat="35.7944695" lon="-78.8015243"/>
      <trkpt lat="35.7945047" lon="-78.8014901"/>
      <trkpt lat="35.7947551" lon="-78.8011280"/>
      <trkpt lat="35.7948929" lon="-78.8009472"/>
      <trkpt lat="35.7949210" lon="-78.8009262"/>
      <trkpt lat="35.7949460" lon="-78.8009117"/>
      <trkpt lat="35.7949801" lon="-78.8009099"/>
      <trkpt lat="35.7950188" lon="-78.8009219"/>
      <trkpt lat="35.7950694" lon="-78.8009516"/>
    </trkseg>
  </trk>
  <trk>
    <name>Black Creek Greenway</name>
    <trkseg>
      <trkpt lat="35.8134949" lon="-78.7839687"/>
      <trkpt lat="35.8135805" lon="-78.7840092"/>
      <trkpt lat="35.8136542" lon="-78.7840750"/>
      <trkpt lat="35.8137127" lon="-78.7841524"/>
      <trkpt lat="35.8138367" lon="-78.7843555"/>
      <trkpt lat="35.8138979" lon="-78.7845080"/>
      <trkpt lat="35.8139410" lon="-78.7846916"/>
      <trkpt lat="35.8139866" lon="-78.7849848"/>
      <trkpt lat="35.8140584" lon="-78.7851439"/>
      <trkpt lat="35.8141214" lon="-78.7853199"/>
      <trkpt lat="35.8143214" lon="-78.7857051"/>
      <trkpt lat="35.8144270" lon="-78.7859969"/>
      <trkpt lat="35.8144566" lon="-78.7860385"/>
      <trkpt lat="35.8144957" lon="-78.7860685"/>
      <trkpt lat="35.8145794" lon="-78.7861028"/>
      <trkpt lat="35.8146590" lon="-78.7861002"/>
      <trkpt lat="35.8147369" lon="-78.7860859"/>
      <trkpt lat="35.8148755" lon="-78.7860438"/>
      <trkpt lat="35.8150504" lon="-78.7859615"/>
      <trkpt lat="35.8152185" lon="-78.7858610"/>
      <trkpt lat="35.8153053" lon="-78.7858299"/>
      <trkpt lat="35.8153928" lon="-78.7857851"/>
      <trkpt lat="35.8154909" lon="-78.7857325"/>
      <trkpt lat="35.8157417" lon="-78.7856131"/>
      <trkpt lat="35.8158984" lon="-78.7852784"/>
      <trkpt lat="35.8160600" lon="-78.7849539"/>
      <trkpt lat="35.8161999" lon="-78.7848237"/>
      <trkpt lat="35.8164457" lon="-78.7846890"/>
      <trkpt lat="35.8167463" lon="-78.7845841"/>
      <trkpt lat="35.8170097" lon="-78.7845014"/>
      <trkpt lat="35.8172537" lon="-78.7844327"/>
      <trkpt lat="35.8174198" lon="-78.7843519"/>
      <trkpt lat="35.8176418" lon="-78.7844021"/>
      <trkpt lat="35.8178483" lon="-78.7844002"/>
      <trkpt lat="35.8181059" lon="-78.7843696"/>
      <trkpt lat="35.8182764" lon="-78.7843776"/>
      <trkpt lat="35.8185713" lon="-78.7842476"/>
      <trkpt lat="35.8188636" lon="-78.7841615"/>
      <trkpt lat="35.8190740" lon="-78.7840851"/>
      <trkpt lat="35.8191655" lon="-78.7839510"/>
      <trkpt lat="35.8193211" lon="-78.7839817"/>
      <trkpt lat="35.8194628" lon="-78.7840171"/>
      <trkpt lat="35.8194911" lon="-78.7840225"/>
      <trkpt lat="35.8197382" lon="-78.7840700"/>
      <trkpt lat="35.8197743" lon="-78.7841764"/>
      <trkpt lat="35.8197352" lon="-78.7844412"/>
      <trkpt lat="35.8197114" lon="-78.7847499"/>
      <trkpt lat="35.8197740" lon="-78.7849702"/>
      <trkpt lat="35.8200230" lon="-78.7850839"/>
      <trkpt lat="35.8201407" lon="-78.7851843"/>
      <trkpt lat="35.8202712" lon="-78.7852770"/>
      <trkpt lat="35.8204956" lon="-78.7853375"/>
      <trkpt lat="35.8208634" lon="-78.7853938"/>
      <trkpt lat="35.8209675" lon="-78.7853970"/>
      <trkpt lat="35.8210758" lon="-78.7853853"/>
      <trkpt lat="35.8211380" lon="-78.7853721"/>
      <trkpt lat="35.8211791" lon="-78.7853461"/>
      <trkpt lat="35.8212232" lon="-78.7853189"/>
      <trkpt lat="35.8214163" lon="-78.7851665"/>
      <trkpt lat="35.8214510" lon="-78.7851505"/>
      <trkpt lat="35.8214884" lon="-78.7851446"/>
      <trkpt lat="35.8215724" lon="-78.7851317"/>
      <trkpt lat="35.8216787" lon="-78.7851199"/>
      <trkpt lat="35.8218573" lon="-78.7851189"/>
      <trkpt lat="35.8221173" lon="-78.7851924"/>
      <trkpt lat="35.8222313" lon="-78.7851400"/>
      <trkpt lat="35.8222938" lon="-78.7851113"/>
      <trkpt lat="35.8224477" lon="-78.7850056"/>
      <trkpt lat="35.8227462" lon="-78.7847833"/>
      <trkpt lat="35.8230001" lon="-78.7846108"/>
      <trkpt lat="35.8232492" lon="-78.7844564"/>
      <trkpt lat="35.8234981" lon="-78.7842950"/>
      <trkpt lat="35.8236499" lon="-78.7841906"/>
      <trkpt lat="35.8238038" lon="-78.7840538"/>
      <trkpt lat="35.8239719" lon="-78.7840498"/>
      <trkpt lat="35.8240738" lon="-78.7840392"/>
      <trkpt lat="35.8242345" lon="-78.7839636"/>
      <trkpt lat="35.8244562" lon="-78.7839382"/>
      <trkpt lat="35.8245341" lon="-78.7839027"/>
      <trkpt lat="35.8245934" lon="-78.7838604"/>
      <trkpt lat="35.8246942" lon="-78.7837956"/>
    </trkseg>
  </trk>
  <trk>
    <name>Black Creek Greenway</name>
    <trkseg>
      <trkpt lat="35.7812166" lon="-78.8159578"/>
      <trkpt lat="35.7811317" lon="-78.8157911"/>
      <trkpt lat="35.7807588" lon="-78.8153579"/>
      <trkpt lat="35.7807150" lon="-78.8152500"/>
      <trkpt lat="35.7806930" lon="-78.8151377"/>
      <trkpt lat="35.7806923" lon="-78.8150713"/>
      <trkpt lat="35.7806991" lon="-78.8150461"/>
      <trkpt lat="35.7807338" lon="-78.8149845"/>
      <trkpt lat="35.7807811" lon="-78.8149344"/>
      <trkpt lat="35.7808803" lon="-78.8148852"/>
      <trkpt lat="35.7809690" lon="-78.8148159"/>
      <trkpt lat="35.7810120" lon="-78.8147645"/>
      <trkpt lat="35.7810503" lon="-78.8146908"/>
      <trkpt lat="35.7810823" lon="-78.8146052"/>
      <trkpt lat="35.7810983" lon="-78.8145047"/>
      <trkpt lat="35.7811163" lon="-78.8142862"/>
      <trkpt lat="35.7811646" lon="-78.8140730"/>
      <trkpt lat="35.7811563" lon="-78.8140199"/>
      <trkpt lat="35.7811371" lon="-78.8139822"/>
      <trkpt lat="35.7811492" lon="-78.8139248"/>
      <trkpt lat="35.7811875" lon="-78.8138502"/>
      <trkpt lat="35.7812325" lon="-78.8137910"/>
      <trkpt lat="35.7813030" lon="-78.8137274"/>
      <trkpt lat="35.7813766" lon="-78.8136984"/>
      <trkpt lat="35.7814722" lon="-78.8136806"/>
      <trkpt lat="35.7815557" lon="-78.8136946"/>
      <trkpt lat="35.7816228" lon="-78.8137322"/>
      <trkpt lat="35.7816768" lon="-78.8139267"/>
      <trkpt lat="35.7817319" lon="-78.8140801"/>
      <trkpt lat="35.7818013" lon="-78.8142654"/>
      <trkpt lat="35.7818720" lon="-78.8143649"/>
      <trkpt lat="35.7819223" lon="-78.8144583"/>
      <trkpt lat="35.7819129" lon="-78.8145450"/>
      <trkpt lat="35.7818742" lon="-78.8147082"/>
      <trkpt lat="35.7818525" lon="-78.8148220"/>
      <trkpt lat="35.7818565" lon="-78.8149513"/>
      <trkpt lat="35.7818750" lon="-78.8151175"/>
      <trkpt lat="35.7818547" lon="-78.8153136"/>
      <trkpt lat="35.7817753" lon="-78.8154519"/>
      <trkpt lat="35.7817554" lon="-78.8154821"/>
      <trkpt lat="35.7816541" lon="-78.8155690"/>
      <trkpt lat="35.7815781" lon="-78.8156130"/>
      <trkpt lat="35.7815084" lon="-78.8156582"/>
      <trkpt lat="35.7814415" lon="-78.8157117"/>
      <trkpt lat="35.7813830" lon="-78.8157697"/>
      <trkpt lat="35.7813364" lon="-78.8158341"/>
      <trkpt lat="35.7812166" lon="-78.8159578"/>
      <trkpt lat="35.7811625" lon="-78.8160130"/>
      <trkpt lat="35.7810849" lon="-78.8160887"/>
      <trkpt lat="35.7810320" lon="-78.8161095"/>
      <trkpt lat="35.7809476" lon="-78.8161177"/>
      <trkpt lat="35.7808755" lon="-78.8161266"/>
      <trkpt lat="35.7807847" lon="-78.8161517"/>
      <trkpt lat="35.7806895" lon="-78.8161879"/>
      <trkpt lat="35.7806031" lon="-78.8162448"/>
      <trkpt lat="35.7805076" lon="-78.8162850"/>
      <trkpt lat="35.7804103" lon="-78.8163032"/>
      <trkpt lat="35.7803164" lon="-78.8163163"/>
      <trkpt lat="35.7801553" lon="-78.8164363"/>
      <trkpt lat="35.7801225" lon="-78.8164540"/>
      <trkpt lat="35.7800850" lon="-78.8164688"/>
      <trkpt lat="35.7799938" lon="-78.8164729"/>
    </trkseg>
  </trk>
  <trk>
    <name>Black Creek Greenway</name>
    <trkseg>
      <trkpt lat="35.7993213" lon="-78.7947232"/>
      <trkpt lat="35.7994638" lon="-78.7944896"/>
      <trkpt lat="35.7996134" lon="-78.7942589"/>
      <trkpt lat="35.7997039" lon="-78.7940180"/>
      <trkpt lat="35.7998117" lon="-78.7937139"/>
      <trkpt lat="35.7998352" lon="-78.7936041"/>
      <trkpt lat="35.7998547" lon="-78.7935191"/>
      <trkpt lat="35.7998676" lon="-78.7934216"/>
      <trkpt lat="35.7998824" lon="-78.7932463"/>
      <trkpt lat="35.7998928" lon="-78.7930934"/>
      <trkpt lat="35.7999188" lon="-78.7925404"/>
      <trkpt lat="35.7999308" lon="-78.7924933"/>
      <trkpt lat="35.7999487" lon="-78.7924527"/>
      <trkpt lat="35.8000403" lon="-78.7923172"/>
      <trkpt lat="35.8000940" lon="-78.7922522"/>
      <trkpt lat="35.8001483" lon="-78.7921953"/>
      <trkpt lat="35.8002635" lon="-78.7921896"/>
      <trkpt lat="35.8003099" lon="-78.7921927"/>
      <trkpt lat="35.8003533" lon="-78.7921985"/>
      <trkpt lat="35.8003822" lon="-78.7922031"/>
      <trkpt lat="35.8004225" lon="-78.7922137"/>
      <trkpt lat="35.8004556" lon="-78.7922244"/>
      <trkpt lat="35.8005204" lon="-78.7922602"/>
      <trkpt lat="35.8005956" lon="-78.7923090"/>
      <trkpt lat="35.8006137" lon="-78.7923145"/>
      <trkpt lat="35.8006341" lon="-78.7923206"/>
      <trkpt lat="35.8006742" lon="-78.7923273"/>
      <trkpt lat="35.8007258" lon="-78.7923264"/>
      <trkpt lat="35.8007589" lon="-78.7923172"/>
      <trkpt lat="35.8008035" lon="-78.7923000"/>
      <trkpt lat="35.8008417" lon="-78.7922779"/>
      <trkpt lat="35.8009156" lon="-78.7922161"/>
      <trkpt lat="35.8009777" lon="-78.7921568"/>
      <trkpt lat="35.8010231" lon="-78.7920987"/>
      <trkpt lat="35.8010846" lon="-78.7920165"/>
      <trkpt lat="35.8011353" lon="-78.7919166"/>
      <trkpt lat="35.8011778" lon="-78.7918179"/>
      <trkpt lat="35.8012518" lon="-78.7916084"/>
      <trkpt lat="35.8012625" lon="-78.7915780"/>
      <trkpt lat="35.8013087" lon="-78.7916048"/>
    </trkseg>
  </trk>
  <trk>
    <name>Black Creek Greenway</name>
    <trkseg>
      <trkpt lat="35.7816643" lon="-78.8136095"/>
      <trkpt lat="35.7816839" lon="-78.8135341"/>
      <trkpt lat="35.7816844" lon="-78.8134479"/>
      <trkpt lat="35.7816729" lon="-78.8133474"/>
      <trkpt lat="35.7816541" lon="-78.8132668"/>
      <trkpt lat="35.7816314" lon="-78.8131570"/>
      <trkpt lat="35.7816270" lon="-78.8130072"/>
      <trkpt lat="35.7816332" lon="-78.8127857"/>
      <trkpt lat="35.7816658" lon="-78.8125860"/>
      <trkpt lat="35.7816592" lon="-78.8124159"/>
      <trkpt lat="35.7816607" lon="-78.8123247"/>
      <trkpt lat="35.7816627" lon="-78.8122592"/>
      <trkpt lat="35.7817101" lon="-78.8120921"/>
      <trkpt lat="35.7817501" lon="-78.8119650"/>
      <trkpt lat="35.7817672" lon="-78.8118141"/>
      <trkpt lat="35.7817906" lon="-78.8116621"/>
      <trkpt lat="35.7818722" lon="-78.8114160"/>
      <trkpt lat="35.7820137" lon="-78.8111919"/>
      <trkpt lat="35.7820906" lon="-78.8110713"/>
      <trkpt lat="35.7821963" lon="-78.8109602"/>
      <trkpt lat="35.7822262" lon="-78.8109291"/>
      <trkpt lat="35.7823585" lon="-78.8108191"/>
      <trkpt lat="35.7824029" lon="-78.8107544"/>
      <trkpt lat="35.7824284" lon="-78.8106901"/>
      <trkpt lat="35.7825022" lon="-78.8104322"/>
      <trkpt lat="35.7825432" lon="-78.8103341"/>
      <trkpt lat="35.7825874" lon="-78.8102728"/>
      <trkpt lat="35.7826122" lon="-78.8102545"/>
      <trkpt lat="35.7826364" lon="-78.8102474"/>
      <trkpt lat="35.7826901" lon="-78.8102381"/>
      <trkpt lat="35.7829062" lon="-78.8102559"/>
      <trkpt lat="35.7830814" lon="-78.8103060"/>
      <trkpt lat="35.7832115" lon="-78.8103208"/>
      <trkpt lat="35.7833026" lon="-78.8102203"/>
      <trkpt lat="35.7833468" lon="-78.8101835"/>
    </trkseg>
  </trk>
  <trk>
    <name>Black Creek Greenway</name>
    <trkseg>
      <trkpt lat="35.8106700" lon="-78.7824401"/>
      <trkpt lat="35.8107543" lon="-78.7824192"/>
      <trkpt lat="35.8108246" lon="-78.7824068"/>
      <trkpt lat="35.8108848" lon="-78.7824028"/>
      <trkpt lat="35.8109373" lon="-78.7824083"/>
      <trkpt lat="35.8109896" lon="-78.7824286"/>
      <trkpt lat="35.8110413" lon="-78.7824459"/>
      <trkpt lat="35.8110858" lon="-78.7824638"/>
      <trkpt lat="35.8113404" lon="-78.7826828"/>
      <trkpt lat="35.8114202" lon="-78.7827066"/>
      <trkpt lat="35.8115081" lon="-78.7827148"/>
      <trkpt lat="35.8115736" lon="-78.7827679"/>
      <trkpt lat="35.8117388" lon="-78.7829493"/>
      <trkpt lat="35.8118517" lon="-78.7830600"/>
      <trkpt lat="35.8119131" lon="-78.7831137"/>
      <trkpt lat="35.8119691" lon="-78.7831395"/>
      <trkpt lat="35.8119972" lon="-78.7831424"/>
      <trkpt lat="35.8120596" lon="-78.7831141"/>
      <trkpt lat="35.8121048" lon="-78.7830986"/>
      <trkpt lat="35.8121411" lon="-78.7831181"/>
      <trkpt lat="35.8121765" lon="-78.7831640"/>
      <trkpt lat="35.8122718" lon="-78.7833225"/>
      <trkpt lat="35.8123154" lon="-78.7833837"/>
      <trkpt lat="35.8123449" lon="-78.7834107"/>
      <trkpt lat="35.8125312" lon="-78.7835409"/>
      <trkpt lat="35.8127256" lon="-78.7836381"/>
      <trkpt lat="35.8127864" lon="-78.7836694"/>
      <trkpt lat="35.8128900" lon="-78.7837626"/>
      <trkpt lat="35.8129618" lon="-78.7837803"/>
      <trkpt lat="35.8130286" lon="-78.7837848"/>
      <trkpt lat="35.8131572" lon="-78.7838186"/>
      <trkpt lat="35.8132331" lon="-78.7838500"/>
      <trkpt lat="35.8133114" lon="-78.7838792"/>
      <trkpt lat="35.8134376" lon="-78.7839419"/>
      <trkpt lat="35.8134949" lon="-78.7839687"/>
    </trkseg>
  </trk>
  <trk>
    <name>Black Creek Greenway</name>
    <trkseg>
      <trkpt lat="35.8015207" lon="-78.7916632"/>
      <trkpt lat="35.8016211" lon="-78.7913702"/>
      <trkpt lat="35.8017075" lon="-78.7910771"/>
      <trkpt lat="35.8017449" lon="-78.7909163"/>
      <trkpt lat="35.8017831" lon="-78.7907599"/>
      <trkpt lat="35.8018076" lon="-78.7906513"/>
      <trkpt lat="35.8018154" lon="-78.7906326"/>
      <trkpt lat="35.8018296" lon="-78.7906174"/>
      <trkpt lat="35.8018462" lon="-78.7906082"/>
      <trkpt lat="35.8018808" lon="-78.7906040"/>
      <trkpt lat="35.8019045" lon="-78.7906157"/>
      <trkpt lat="35.8019265" lon="-78.7906386"/>
      <trkpt lat="35.8019372" lon="-78.7906555"/>
      <trkpt lat="35.8019487" lon="-78.7906806"/>
      <trkpt lat="35.8019569" lon="-78.7907099"/>
      <trkpt lat="35.8019672" lon="-78.7907575"/>
      <trkpt lat="35.8019449" lon="-78.7909775"/>
      <trkpt lat="35.8019782" lon="-78.7910679"/>
      <trkpt lat="35.8020437" lon="-78.7911064"/>
      <trkpt lat="35.8020979" lon="-78.7910902"/>
      <trkpt lat="35.8021478" lon="-78.7910674"/>
    </trkseg>
  </trk>
  <trk>
    <name>Black Creek Greenway</name>
    <trkseg>
      <trkpt lat="35.7964136" lon="-78.7994682"/>
      <trkpt lat="35.7967144" lon="-78.7989609"/>
      <trkpt lat="35.7970253" lon="-78.7984117"/>
      <trkpt lat="35.7971065" lon="-78.7982902"/>
      <trkpt lat="35.7972195" lon="-78.7981732"/>
      <trkpt lat="35.7972969" lon="-78.7980451"/>
      <trkpt lat="35.7976489" lon="-78.7974512"/>
      <trkpt lat="35.7979239" lon="-78.7969270"/>
      <trkpt lat="35.7979626" lon="-78.7968780"/>
      <trkpt lat="35.7980025" lon="-78.7968255"/>
      <trkpt lat="35.7984082" lon="-78.7962251"/>
      <trkpt lat="35.7984848" lon="-78.7961026"/>
      <trkpt lat="35.7985091" lon="-78.7960511"/>
      <trkpt lat="35.7985258" lon="-78.7959997"/>
    </trkseg>
  </trk>
  <trk>
    <name>Black Creek Greenway</name>
    <trkseg>
      <trkpt lat="35.7987711" lon="-78.7956776"/>
      <trkpt lat="35.7987823" lon="-78.7956435"/>
      <trkpt lat="35.7988079" lon="-78.7956206"/>
      <trkpt lat="35.7988188" lon="-78.7956071"/>
      <trkpt lat="35.7988218" lon="-78.7955870"/>
      <trkpt lat="35.7988181" lon="-78.7955565"/>
      <trkpt lat="35.7988381" lon="-78.7955466"/>
      <trkpt lat="35.7988618" lon="-78.7955161"/>
      <trkpt lat="35.7988872" lon="-78.7954942"/>
      <trkpt lat="35.7989158" lon="-78.7954461"/>
      <trkpt lat="35.7990126" lon="-78.7952868"/>
      <trkpt lat="35.7991904" lon="-78.7949400"/>
      <trkpt lat="35.7992252" lon="-78.7948815"/>
      <trkpt lat="35.7993213" lon="-78.7947232"/>
    </trkseg>
  </trk>
  <trk>
    <name>Black Creek Greenway</name>
    <trkseg>
      <trkpt lat="35.7850014" lon="-78.8100725"/>
      <trkpt lat="35.7851096" lon="-78.8100698"/>
      <trkpt lat="35.7852341" lon="-78.8101115"/>
      <trkpt lat="35.7853348" lon="-78.8101387"/>
      <trkpt lat="35.7853783" lon="-78.8101454"/>
      <trkpt lat="35.7855319" lon="-78.8100972"/>
      <trkpt lat="35.7855975" lon="-78.8100889"/>
      <trkpt lat="35.7856502" lon="-78.8100895"/>
      <trkpt lat="35.7857291" lon="-78.8101129"/>
      <trkpt lat="35.7858150" lon="-78.8101398"/>
      <trkpt lat="35.7858622" lon="-78.8101409"/>
      <trkpt lat="35.7859592" lon="-78.8100909"/>
      <trkpt lat="35.7860395" lon="-78.8100669"/>
      <trkpt lat="35.7861045" lon="-78.8100595"/>
    </trkseg>
  </trk>
  <trk>
    <name>Black Creek Greenway</name>
    <trkseg>
      <trkpt lat="35.7835781" lon="-78.8101717"/>
      <trkpt lat="35.7835980" lon="-78.8101795"/>
      <trkpt lat="35.7836139" lon="-78.8101840"/>
      <trkpt lat="35.7836300" lon="-78.8101869"/>
      <trkpt lat="35.7836752" lon="-78.8101825"/>
      <trkpt lat="35.7838128" lon="-78.8101789"/>
      <trkpt lat="35.7839697" lon="-78.8101724"/>
      <trkpt lat="35.7841854" lon="-78.8101563"/>
      <trkpt lat="35.7842903" lon="-78.8101491"/>
      <trkpt lat="35.7843986" lon="-78.8101725"/>
      <trkpt lat="35.7845003" lon="-78.8101800"/>
      <trkpt lat="35.7846622" lon="-78.8101092"/>
      <trkpt lat="35.7847899" lon="-78.8100883"/>
    </trkseg>
  </trk>
  <trk>
    <name>Black Creek Greenway</name>
    <trkseg>
      <trkpt lat="35.8210758" lon="-78.7853853"/>
      <trkpt lat="35.8210339" lon="-78.7851457"/>
      <trkpt lat="35.8209991" lon="-78.7848453"/>
      <trkpt lat="35.8209435" lon="-78.7846479"/>
      <trkpt lat="35.8208808" lon="-78.7844505"/>
      <trkpt lat="35.8208704" lon="-78.7842246"/>
      <trkpt lat="35.8208863" lon="-78.7840801"/>
      <trkpt lat="35.8208897" lon="-78.7840029"/>
      <trkpt lat="35.8208782" lon="-78.7839318"/>
      <trkpt lat="35.8208408" lon="-78.7838792"/>
      <trkpt lat="35.8207989" lon="-78.7838532"/>
      <trkpt lat="35.8207021" lon="-78.7838283"/>
    </trkseg>
  </trk>
  <trk>
    <name>Black Creek Greenway</name>
    <trkseg>
      <trkpt lat="35.7955131" lon="-78.8009123"/>
      <trkpt lat="35.7955244" lon="-78.8008389"/>
      <trkpt lat="35.7955696" lon="-78.8007850"/>
      <trkpt lat="35.7956803" lon="-78.8006909"/>
      <trkpt lat="35.7958374" lon="-78.8004450"/>
      <trkpt lat="35.7959185" lon="-78.8002701"/>
      <trkpt lat="35.7960134" lon="-78.8001158"/>
      <trkpt lat="35.7961400" lon="-78.7999399"/>
      <trkpt lat="35.7962645" lon="-78.7997454"/>
      <trkpt lat="35.7964136" lon="-78.7994682"/>
    </trkseg>
  </trk>
  <trk>
    <name>Black Creek Greenway</name>
    <trkseg>
      <trkpt lat="35.7862813" lon="-78.8097357"/>
      <trkpt lat="35.7863372" lon="-78.8097411"/>
      <trkpt lat="35.7864935" lon="-78.8097288"/>
      <trkpt lat="35.7866814" lon="-78.8097228"/>
      <trkpt lat="35.7874284" lon="-78.8096986"/>
      <trkpt lat="35.7876771" lon="-78.8096875"/>
    </trkseg>
  </trk>
  <trk>
    <name>Black Creek Greenway</name>
    <trkseg>
      <trkpt lat="35.7861045" lon="-78.8100595"/>
      <trkpt lat="35.7861173" lon="-78.8100391"/>
      <trkpt lat="35.7861893" lon="-78.8100350"/>
      <trkpt lat="35.7862943" lon="-78.8100347"/>
      <trkpt lat="35.7863688" lon="-78.8100325"/>
      <trkpt lat="35.7863919" lon="-78.8100498"/>
    </trkseg>
  </trk>
  <trk>
    <name>Black Creek Greenway</name>
    <trkseg>
      <trkpt lat="35.7953954" lon="-78.8011043"/>
      <trkpt lat="35.7954175" lon="-78.8010930"/>
      <trkpt lat="35.7954771" lon="-78.8009992"/>
      <trkpt lat="35.7955142" lon="-78.8009381"/>
      <trkpt lat="35.7955131" lon="-78.8009123"/>
    </trkseg>
  </trk>
  <trk>
    <name>Black Creek Greenway</name>
    <trkseg>
      <trkpt lat="35.7951393" lon="-78.8009935"/>
      <trkpt lat="35.7952590" lon="-78.8010768"/>
      <trkpt lat="35.7953447" lon="-78.8011142"/>
      <trkpt lat="35.7953954" lon="-78.8011043"/>
    </trkseg>
  </trk>
  <trk>
    <name>Black Creek Greenway</name>
    <trkseg>
      <trkpt lat="35.7876771" lon="-78.8096875"/>
      <trkpt lat="35.7877211" lon="-78.8096887"/>
      <trkpt lat="35.7878200" lon="-78.8096792"/>
      <trkpt lat="35.7878839" lon="-78.8096732"/>
    </trkseg>
  </trk>
  <trk>
    <name>Black Creek Greenway</name>
    <trkseg>
      <trkpt lat="35.7863919" lon="-78.8100498"/>
      <trkpt lat="35.7863617" lon="-78.8099620"/>
      <trkpt lat="35.7863095" lon="-78.8098113"/>
      <trkpt lat="35.7862813" lon="-78.8097357"/>
    </trkseg>
  </trk>
  <trk>
    <name>Black Creek Greenway</name>
    <trkseg>
      <trkpt lat="35.7950694" lon="-78.8009516"/>
      <trkpt lat="35.7951082" lon="-78.8009763"/>
      <trkpt lat="35.7951393" lon="-78.8009935"/>
    </trkseg>
  </trk>
  <trk>
    <name>Black Creek Greenway</name>
    <trkseg>
      <trkpt lat="35.7847899" lon="-78.8100883"/>
      <trkpt lat="35.7848955" lon="-78.8100801"/>
      <trkpt lat="35.7850014" lon="-78.8100725"/>
    </trkseg>
  </trk>
  <trk>
    <name>Black Creek Greenway</name>
    <trkseg>
      <trkpt lat="35.7833468" lon="-78.8101835"/>
      <trkpt lat="35.7834693" lon="-78.8101758"/>
      <trkpt lat="35.7835781" lon="-78.8101717"/>
    </trkseg>
  </trk>
  <trk>
    <name>Black Creek Greenway</name>
    <trkseg>
      <trkpt lat="35.8185713" lon="-78.7842476"/>
      <trkpt lat="35.8183437" lon="-78.7835766"/>
    </trkseg>
  </trk>
  <trk>
    <name>Black Creek Greenway</name>
    <trkseg>
      <trkpt lat="35.8215724" lon="-78.7851317"/>
      <trkpt lat="35.8216229" lon="-78.7856341"/>
    </trkseg>
  </trk>
  <trk>
    <name>Black Creek Greenway</name>
    <trkseg>
      <trkpt lat="35.8012625" lon="-78.7915780"/>
      <trkpt lat="35.8012737" lon="-78.7915492"/>
    </trkseg>
  </trk>
  <trk>
    <name>Black Creek Greenway</name>
    <trkseg>
      <trkpt lat="35.8015102" lon="-78.7916577"/>
      <trkpt lat="35.8015207" lon="-78.7916632"/>
    </trkseg>
  </trk>
  <trk>
    <name>Black Creek Greenway</name>
    <trkseg>
      <trkpt lat="35.8018098" lon="-78.7906232"/>
      <trkpt lat="35.8018154" lon="-78.7906326"/>
    </trkseg>
  </trk>
</gpx>