<?xml version="1.0" encoding="UTF-8"?>
<gpx version="1.1" creator="OpenStreetMap Overpass API"
     xmlns="http://www.topografix.com/GPX/1/1"
     xmlns:xsi="http://www.w3.org/2001/XMLSchema-instance"
     xsi:schemaLocation="http://www.topografix.com/GPX/1/1 http://www.topografix.com/GPX/1/1/gpx.xsd">
  <metadata>
    <name>White Oak Creek Greenway</name>
    <desc>White Oak Creek Greenway cycling path, Cary NC. ~7.5 miles connecting Bond Park to American Tobacco Trail. Source: OpenStreetMap (ODbL)</desc>
    <author>
      <name>OpenStreetMap contributors</name>
    </author>
    <copyright author="OpenStreetMap contributors">
      <license>https://opendatacommons.org/licenses/odbl/1-0/</license>
    </copyright>
    <link href="https://www.openstreetmap.org">
      <text>OpenStreetMap</text>
    </link>
  </metadata>
  <trk>
    <name>White Oak Creek Greenway</name>
    <trkseg>
      <trkpt lat="35.7762998" lon="-78.8418620"/>
      <trkpt lat="35.7763297" lon="-78.8418384"/>
      <trkpt lat="35.7763547" lon="-78.8418362"/>
      <trkpt lat="35.7763863" lon="-78.8418582"/>
      <trkpt lat="35.7764277" lon="-78.8418861"/>
      <trkpt lat="35.7764713" lon="-78.8418989"/>
      <trkpt lat="35.7765072" lon="-78.8418982"/>
      <trkpt lat="35.7765592" lon="-78.8418659"/>
      <trkpt lat="35.7767355" lon="-78.8416586"/>
      <trkpt lat="35.7768834" lon="-78.8414574"/>
      <trkpt lat="35.7769676" lon="-78.8413194"/>
      <trkpt lat="35.7769822" lon="-78.8412404"/>
      <trkpt lat="35.7769853" lon="-78.8411521"/>
      <trkpt lat="35.7770025" lon="-78.8410316"/>
      <trkpt lat="35.7770520" lon="-78.8409000"/>
      <trkpt lat="35.7770619" lon="-78.8408674"/>
      <trkpt lat="35.7770614" lon="-78.8408190"/>
      <trkpt lat="35.7770573" lon="-78.8407833"/>
      <trkpt lat="35.7770242" lon="-78.8406539"/>
      <trkpt lat="35.7770261" lon="-78.8405908"/>
      <trkpt lat="35.7770478" lon="-78.8405423"/>
      <trkpt lat="35.7770740" lon="-78.8405046"/>
      <trkpt lat="35.7770887" lon="-78.8404642"/>
      <trkpt lat="35.7770994" lon="-78.8404145"/>
      <trkpt lat="35.7770981" lon="-78.8403379"/>
      <trkpt lat="35.7770855" lon="-78.8402702"/>
      <trkpt lat="35.7770390" lon="-78.8402081"/>
      <trkpt lat="35.7769707" lon="-78.8401367"/>
      <trkpt lat="35.7769140" lon="-78.8400798"/>
      <trkpt lat="35.7768812" lon="-78.8400390"/>
      <trkpt lat="35.7768343" lon="-78.8399779"/>
      <trkpt lat="35.7768048" lon="-78.8399034"/>
      <trkpt lat="35.7767815" lon="-78.8398128"/>
      <trkpt lat="35.7767615" lon="-78.8397062"/>
      <trkpt lat="35.7767376" lon="-78.8395560"/>
      <trkpt lat="35.7767172" lon="-78.8394439"/>
      <trkpt lat="35.7766934" lon="-78.8393506"/>
      <trkpt lat="35.7766634" lon="-78.8392739"/>
      <trkpt lat="35.7766092" lon="-78.8391325"/>
      <trkpt lat="35.7765881" lon="-78.8390664"/>
      <trkpt lat="35.7765811" lon="-78.8390029"/>
      <trkpt lat="35.7765822" lon="-78.8389308"/>
      <trkpt lat="35.7766051" lon="-78.8388077"/>
      <trkpt lat="35.7766399" lon="-78.8386099"/>
      <trkpt lat="35.7766596" lon="-78.8384501"/>
      <trkpt lat="35.7766662" lon="-78.8382594"/>
      <trkpt lat="35.7766694" lon="-78.8381792"/>
      <trkpt lat="35.7766834" lon="-78.8381097"/>
      <trkpt lat="35.7767083" lon="-78.8380217"/>
      <trkpt lat="35.7767818" lon="-78.8378492"/>
      <trkpt lat="35.7768444" lon="-78.8377063"/>
      <trkpt lat="35.7768824" lon="-78.8376355"/>
      <trkpt lat="35.7769224" lon="-78.8375678"/>
      <trkpt lat="35.7769481" lon="-78.8375448"/>
      <trkpt lat="35.7770283" lon="-78.8374814"/>
      <trkpt lat="35.7770966" lon="-78.8374390"/>
      <trkpt lat="35.7771527" lon="-78.8373904"/>
      <trkpt lat="35.7771697" lon="-78.8373656"/>
      <trkpt lat="35.7771879" lon="-78.8373287"/>
      <trkpt lat="35.7773950" lon="-78.8368667"/>
      <trkpt lat="35.7774143" lon="-78.8368489"/>
      <trkpt lat="35.7774500" lon="-78.8368446"/>
      <trkpt lat="35.7775126" lon="-78.8368559"/>
      <trkpt lat="35.7775856" lon="-78.8368519"/>
      <trkpt lat="35.7776139" lon="-78.8368395"/>
      <trkpt lat="35.7776379" lon="-78.8368196"/>
      <trkpt lat="35.7776542" lon="-78.8367944"/>
      <trkpt lat="35.7776966" lon="-78.8367480"/>
      <trkpt lat="35.7777902" lon="-78.8366592"/>
      <trkpt lat="35.7779085" lon="-78.8364103"/>
      <trkpt lat="35.7783123" lon="-78.8361128"/>
      <trkpt lat="35.7784161" lon="-78.8361110"/>
      <trkpt lat="35.7784734" lon="-78.8360726"/>
      <trkpt lat="35.7785106" lon="-78.8360272"/>
      <trkpt lat="35.7785399" lon="-78.8359719"/>
      <trkpt lat="35.7785712" lon="-78.8358766"/>
      <trkpt lat="35.7785924" lon="-78.8357587"/>
      <trkpt lat="35.7786136" lon="-78.8356024"/>
      <trkpt lat="35.7786515" lon="-78.8354760"/>
      <trkpt lat="35.7787070" lon="-78.8353980"/>
      <trkpt lat="35.7787872" lon="-78.8353359"/>
      <trkpt lat="35.7790038" lon="-78.8352252"/>
      <trkpt lat="35.7790752" lon="-78.8351775"/>
      <trkpt lat="35.7791426" lon="-78.8350941"/>
      <trkpt lat="35.7791689" lon="-78.8350475"/>
      <trkpt lat="35.7791888" lon="-78.8350062"/>
      <trkpt lat="35.7792413" lon="-78.8347103"/>
      <trkpt lat="35.7793292" lon="-78.8343578"/>
      <trkpt lat="35.7793903" lon="-78.8341546"/>
      <trkpt lat="35.7795449" lon="-78.8336637"/>
      <trkpt lat="35.7797465" lon="-78.8334252"/>
      <trkpt lat="35.7798067" lon="-78.8333369"/>
      <trkpt lat="35.7798353" lon="-78.8332741"/>
      <trkpt lat="35.7798326" lon="-78.8331389"/>
      <trkpt lat="35.7798060" lon="-78.8330065"/>
      <trkpt lat="35.7799140" lon="-78.8328397"/>
      <trkpt lat="35.7801422" lon="-78.8326169"/>
      <trkpt lat="35.7803072" lon="-78.8324245"/>
      <trkpt lat="35.7804432" lon="-78.8321874"/>
      <trkpt lat="35.7806242" lon="-78.8318269"/>
      <trkpt lat="35.7807217" lon="-78.8313549"/>
      <trkpt lat="35.7808888" lon="-78.8310888"/>
      <trkpt lat="35.7809445" lon="-78.8309343"/>
      <trkpt lat="35.7811464" lon="-78.8307626"/>
      <trkpt lat="35.7811952" lon="-78.8305395"/>
      <trkpt lat="35.7813136" lon="-78.8303163"/>
      <trkpt lat="35.7812954" lon="-78.8300857"/>
      <trkpt lat="35.7812648" lon="-78.8300331"/>
      <trkpt lat="35.7811935" lon="-78.8297214"/>
      <trkpt lat="35.7811403" lon="-78.8292709"/>
      <trkpt lat="35.7811473" lon="-78.8289009"/>
      <trkpt lat="35.7813945" lon="-78.8285697"/>
      <trkpt lat="35.7815889" lon="-78.8282186"/>
      <trkpt lat="35.7816641" lon="-78.8281343"/>
      <trkpt lat="35.7817625" lon="-78.8280612"/>
      <trkpt lat="35.7818523" lon="-78.8279794"/>
      <trkpt lat="35.7820440" lon="-78.8276268"/>
      <trkpt lat="35.7821044" lon="-78.8275115"/>
      <trkpt lat="35.7822779" lon="-78.8272746"/>
      <trkpt lat="35.7823393" lon="-78.8271690"/>
      <trkpt lat="35.7826398" lon="-78.8266550"/>
      <trkpt lat="35.7827721" lon="-78.8264189"/>
      <trkpt lat="35.7827909" lon="-78.8263262"/>
      <trkpt lat="35.7827868" lon="-78.8262200"/>
      <trkpt lat="35.7827552" lon="-78.8261208"/>
    </trkseg>
  </trk>
  <trk>
    <name>White Oak Creek Greenway</name>
    <trkseg>
      <trkpt lat="35.7755933" lon="-78.8474064"/>
      <trkpt lat="35.7755822" lon="-78.8474376"/>
      <trkpt lat="35.7755874" lon="-78.8474648"/>
      <trkpt lat="35.7756081" lon="-78.8475227"/>
      <trkpt lat="35.7756544" lon="-78.8476022"/>
      <trkpt lat="35.7757442" lon="-78.8477370"/>
      <trkpt lat="35.7757789" lon="-78.8478034"/>
      <trkpt lat="35.7757916" lon="-78.8478420"/>
      <trkpt lat="35.7757978" lon="-78.8478927"/>
      <trkpt lat="35.7757998" lon="-78.8479944"/>
      <trkpt lat="35.7758131" lon="-78.8482640"/>
      <trkpt lat="35.7758128" lon="-78.8483428"/>
      <trkpt lat="35.7757604" lon="-78.8487179"/>
      <trkpt lat="35.7758221" lon="-78.8488311"/>
      <trkpt lat="35.7759340" lon="-78.8490894"/>
      <trkpt lat="35.7759360" lon="-78.8491666"/>
      <trkpt lat="35.7759080" lon="-78.8492553"/>
      <trkpt lat="35.7758048" lon="-78.8494206"/>
      <trkpt lat="35.7757419" lon="-78.8495144"/>
      <trkpt lat="35.7757228" lon="-78.8496072"/>
      <trkpt lat="35.7757285" lon="-78.8497448"/>
      <trkpt lat="35.7757548" lon="-78.8498561"/>
      <trkpt lat="35.7758147" lon="-78.8499661"/>
      <trkpt lat="35.7758817" lon="-78.8500542"/>
      <trkpt lat="35.7760197" lon="-78.8501894"/>
      <trkpt lat="35.7760710" lon="-78.8502725"/>
      <trkpt lat="35.7761260" lon="-78.8504012"/>
      <trkpt lat="35.7761579" lon="-78.8505378"/>
      <trkpt lat="35.7761999" lon="-78.8509169"/>
      <trkpt lat="35.7761970" lon="-78.8509894"/>
      <trkpt lat="35.7761926" lon="-78.8510572"/>
      <trkpt lat="35.7761766" lon="-78.8511796"/>
      <trkpt lat="35.7761481" lon="-78.8513570"/>
      <trkpt lat="35.7761238" lon="-78.8514728"/>
      <trkpt lat="35.7760888" lon="-78.8515782"/>
      <trkpt lat="35.7759915" lon="-78.8517530"/>
      <trkpt lat="35.7759365" lon="-78.8518490"/>
      <trkpt lat="35.7759068" lon="-78.8519244"/>
      <trkpt lat="35.7759017" lon="-78.8519939"/>
      <trkpt lat="35.7758988" lon="-78.8520792"/>
      <trkpt lat="35.7758939" lon="-78.8521797"/>
      <trkpt lat="35.7758703" lon="-78.8523127"/>
      <trkpt lat="35.7758234" lon="-78.8526049"/>
      <trkpt lat="35.7757741" lon="-78.8528988"/>
      <trkpt lat="35.7757446" lon="-78.8530407"/>
      <trkpt lat="35.7757102" lon="-78.8531134"/>
      <trkpt lat="35.7757010" lon="-78.8531293"/>
      <trkpt lat="35.7756602" lon="-78.8531994"/>
      <trkpt lat="35.7756143" lon="-78.8532698"/>
      <trkpt lat="35.7755995" lon="-78.8532836"/>
      <trkpt lat="35.7755643" lon="-78.8533156"/>
      <trkpt lat="35.7755149" lon="-78.8533359"/>
      <trkpt lat="35.7753998" lon="-78.8533629"/>
      <trkpt lat="35.7753466" lon="-78.8533938"/>
      <trkpt lat="35.7753003" lon="-78.8534357"/>
      <trkpt lat="35.7752104" lon="-78.8535364"/>
      <trkpt lat="35.7751431" lon="-78.8536110"/>
      <trkpt lat="35.7750846" lon="-78.8536898"/>
      <trkpt lat="35.7750401" lon="-78.8537597"/>
      <trkpt lat="35.7749957" lon="-78.8538472"/>
      <trkpt lat="35.7748750" lon="-78.8541643"/>
      <trkpt lat="35.7747659" lon="-78.8544412"/>
      <trkpt lat="35.7747024" lon="-78.8546121"/>
      <trkpt lat="35.7746435" lon="-78.8547538"/>
      <trkpt lat="35.7745438" lon="-78.8550339"/>
      <trkpt lat="35.7745293" lon="-78.8550585"/>
    </trkseg>
  </trk>
  <trk>
    <name>White Oak Creek Greenway</name>
    <trkseg>
      <trkpt lat="35.7744982" lon="-78.8551452"/>
      <trkpt lat="35.7744791" lon="-78.8551792"/>
      <trkpt lat="35.7742539" lon="-78.8556051"/>
      <trkpt lat="35.7740840" lon="-78.8558885"/>
      <trkpt lat="35.7740661" lon="-78.8559483"/>
      <trkpt lat="35.7740782" lon="-78.8560188"/>
      <trkpt lat="35.7741739" lon="-78.8562159"/>
      <trkpt lat="35.7742227" lon="-78.8563643"/>
      <trkpt lat="35.7742542" lon="-78.8565873"/>
      <trkpt lat="35.7742689" lon="-78.8566616"/>
      <trkpt lat="35.7742938" lon="-78.8567322"/>
      <trkpt lat="35.7743502" lon="-78.8568494"/>
      <trkpt lat="35.7743819" lon="-78.8568988"/>
      <trkpt lat="35.7744208" lon="-78.8569447"/>
      <trkpt lat="35.7745319" lon="-78.8570493"/>
      <trkpt lat="35.7747137" lon="-78.8571839"/>
      <trkpt lat="35.7749331" lon="-78.8573577"/>
      <trkpt lat="35.7752768" lon="-78.8575808"/>
      <trkpt lat="35.7753294" lon="-78.8576205"/>
      <trkpt lat="35.7753718" lon="-78.8576968"/>
      <trkpt lat="35.7754800" lon="-78.8579990"/>
      <trkpt lat="35.7755277" lon="-78.8581142"/>
      <trkpt lat="35.7755876" lon="-78.8582589"/>
      <trkpt lat="35.7756598" lon="-78.8584654"/>
      <trkpt lat="35.7757919" lon="-78.8586568"/>
      <trkpt lat="35.7758379" lon="-78.8588897"/>
      <trkpt lat="35.7758624" lon="-78.8589971"/>
      <trkpt lat="35.7758819" lon="-78.8590526"/>
      <trkpt lat="35.7759111" lon="-78.8591067"/>
      <trkpt lat="35.7760670" lon="-78.8592391"/>
      <trkpt lat="35.7763276" lon="-78.8594196"/>
      <trkpt lat="35.7765999" lon="-78.8595994"/>
      <trkpt lat="35.7768731" lon="-78.8597429"/>
      <trkpt lat="35.7770503" lon="-78.8598080"/>
      <trkpt lat="35.7770977" lon="-78.8598129"/>
      <trkpt lat="35.7771471" lon="-78.8598225"/>
      <trkpt lat="35.7771715" lon="-78.8598556"/>
      <trkpt lat="35.7771933" lon="-78.8599005"/>
      <trkpt lat="35.7772937" lon="-78.8601115"/>
      <trkpt lat="35.7773688" lon="-78.8602436"/>
      <trkpt lat="35.7774031" lon="-78.8603141"/>
      <trkpt lat="35.7774375" lon="-78.8604037"/>
      <trkpt lat="35.7776027" lon="-78.8608171"/>
      <trkpt lat="35.7776333" lon="-78.8609141"/>
      <trkpt lat="35.7776426" lon="-78.8609735"/>
      <trkpt lat="35.7776416" lon="-78.8610253"/>
      <trkpt lat="35.7776323" lon="-78.8610938"/>
      <trkpt lat="35.7775627" lon="-78.8613459"/>
      <trkpt lat="35.7775131" lon="-78.8615043"/>
      <trkpt lat="35.7774706" lon="-78.8616213"/>
      <trkpt lat="35.7774453" lon="-78.8617030"/>
      <trkpt lat="35.7774402" lon="-78.8617451"/>
      <trkpt lat="35.7774505" lon="-78.8617825"/>
      <trkpt lat="35.7774652" lon="-78.8618185"/>
      <trkpt lat="35.7775158" lon="-78.8618982"/>
      <trkpt lat="35.7775559" lon="-78.8619494"/>
      <trkpt lat="35.7775825" lon="-78.8619998"/>
      <trkpt lat="35.7776061" lon="-78.8620754"/>
      <trkpt lat="35.7776403" lon="-78.8621985"/>
      <trkpt lat="35.7777034" lon="-78.8624438"/>
      <trkpt lat="35.7777304" lon="-78.8625697"/>
      <trkpt lat="35.7777369" lon="-78.8626515"/>
      <trkpt lat="35.7777430" lon="-78.8627426"/>
      <trkpt lat="35.7777350" lon="-78.8630203"/>
    </trkseg>
  </trk>
  <trk>
    <name>White Oak Creek Greenway</name>
    <trkseg>
      <trkpt lat="35.7777350" lon="-78.8630203"/>
      <trkpt lat="35.7777385" lon="-78.8630690"/>
      <trkpt lat="35.7777452" lon="-78.8631154"/>
      <trkpt lat="35.7777458" lon="-78.8631689"/>
      <trkpt lat="35.7777421" lon="-78.8632659"/>
      <trkpt lat="35.7777185" lon="-78.8634946"/>
      <trkpt lat="35.7777039" lon="-78.8639083"/>
      <trkpt lat="35.7777014" lon="-78.8641986"/>
      <trkpt lat="35.7777018" lon="-78.8643496"/>
      <trkpt lat="35.7777049" lon="-78.8646565"/>
      <trkpt lat="35.7777207" lon="-78.8652594"/>
      <trkpt lat="35.7777255" lon="-78.8653484"/>
      <trkpt lat="35.7777330" lon="-78.8654336"/>
      <trkpt lat="35.7777549" lon="-78.8655654"/>
      <trkpt lat="35.7777771" lon="-78.8656211"/>
      <trkpt lat="35.7777999" lon="-78.8656646"/>
      <trkpt lat="35.7778382" lon="-78.8656942"/>
      <trkpt lat="35.7778771" lon="-78.8657083"/>
      <trkpt lat="35.7779624" lon="-78.8657042"/>
      <trkpt lat="35.7779965" lon="-78.8657076"/>
      <trkpt lat="35.7780186" lon="-78.8657273"/>
      <trkpt lat="35.7780353" lon="-78.8657490"/>
      <trkpt lat="35.7780461" lon="-78.8657829"/>
      <trkpt lat="35.7780567" lon="-78.8658421"/>
      <trkpt lat="35.7780538" lon="-78.8659825"/>
      <trkpt lat="35.7780631" lon="-78.8661245"/>
      <trkpt lat="35.7781098" lon="-78.8664720"/>
      <trkpt lat="35.7781502" lon="-78.8666789"/>
      <trkpt lat="35.7782010" lon="-78.8667974"/>
      <trkpt lat="35.7782592" lon="-78.8669109"/>
      <trkpt lat="35.7784848" lon="-78.8672617"/>
      <trkpt lat="35.7785127" lon="-78.8673039"/>
      <trkpt lat="35.7785272" lon="-78.8673498"/>
      <trkpt lat="35.7785243" lon="-78.8674015"/>
      <trkpt lat="35.7785023" lon="-78.8674705"/>
      <trkpt lat="35.7784728" lon="-78.8675860"/>
      <trkpt lat="35.7784660" lon="-78.8676070"/>
      <trkpt lat="35.7784386" lon="-78.8676459"/>
      <trkpt lat="35.7784191" lon="-78.8676737"/>
      <trkpt lat="35.7783916" lon="-78.8676958"/>
      <trkpt lat="35.7784806" lon="-78.8677678"/>
      <trkpt lat="35.7785074" lon="-78.8678115"/>
      <trkpt lat="35.7785332" lon="-78.8678634"/>
      <trkpt lat="35.7785763" lon="-78.8680381"/>
      <trkpt lat="35.7786230" lon="-78.8682094"/>
      <trkpt lat="35.7787261" lon="-78.8684989"/>
      <trkpt lat="35.7788396" lon="-78.8689706"/>
      <trkpt lat="35.7788993" lon="-78.8691961"/>
      <trkpt lat="35.7789141" lon="-78.8693581"/>
      <trkpt lat="35.7789369" lon="-78.8695615"/>
      <trkpt lat="35.7789884" lon="-78.8699052"/>
      <trkpt lat="35.7790145" lon="-78.8700999"/>
      <trkpt lat="35.7790498" lon="-78.8702824"/>
      <trkpt lat="35.7790873" lon="-78.8703996"/>
      <trkpt lat="35.7792438" lon="-78.8707869"/>
      <trkpt lat="35.7794342" lon="-78.8712428"/>
      <trkpt lat="35.7795394" lon="-78.8714636"/>
      <trkpt lat="35.7795656" lon="-78.8715464"/>
      <trkpt lat="35.7795820" lon="-78.8716693"/>
      <trkpt lat="35.7795856" lon="-78.8718039"/>
    </trkseg>
  </trk>
  <trk>
    <name>White Oak Creek Greenway</name>
    <trkseg>
      <trkpt lat="35.7738845" lon="-78.8459185"/>
      <trkpt lat="35.7738983" lon="-78.8458813"/>
      <trkpt lat="35.7739224" lon="-78.8458586"/>
      <trkpt lat="35.7739515" lon="-78.8458585"/>
      <trkpt lat="35.7740513" lon="-78.8458968"/>
      <trkpt lat="35.7742462" lon="-78.8459547"/>
      <trkpt lat="35.7742911" lon="-78.8459413"/>
      <trkpt lat="35.7743377" lon="-78.8459075"/>
      <trkpt lat="35.7743801" lon="-78.8458119"/>
      <trkpt lat="35.7744085" lon="-78.8457593"/>
      <trkpt lat="35.7745286" lon="-78.8454589"/>
      <trkpt lat="35.7745318" lon="-78.8454243"/>
      <trkpt lat="35.7745288" lon="-78.8453898"/>
      <trkpt lat="35.7745213" lon="-78.8453483"/>
      <trkpt lat="35.7745078" lon="-78.8453159"/>
      <trkpt lat="35.7744924" lon="-78.8452889"/>
      <trkpt lat="35.7744675" lon="-78.8452652"/>
      <trkpt lat="35.7743073" lon="-78.8451582"/>
      <trkpt lat="35.7742860" lon="-78.8451480"/>
      <trkpt lat="35.7742609" lon="-78.8451456"/>
      <trkpt lat="35.7741613" lon="-78.8451450"/>
      <trkpt lat="35.7741275" lon="-78.8451370"/>
      <trkpt lat="35.7740953" lon="-78.8451145"/>
      <trkpt lat="35.7740636" lon="-78.8450766"/>
      <trkpt lat="35.7740595" lon="-78.8450359"/>
      <trkpt lat="35.7740686" lon="-78.8449576"/>
      <trkpt lat="35.7742114" lon="-78.8446555"/>
      <trkpt lat="35.7742381" lon="-78.8446063"/>
      <trkpt lat="35.7742655" lon="-78.8445847"/>
      <trkpt lat="35.7742994" lon="-78.8445713"/>
      <trkpt lat="35.7743956" lon="-78.8445364"/>
      <trkpt lat="35.7744586" lon="-78.8445078"/>
      <trkpt lat="35.7744908" lon="-78.8444732"/>
      <trkpt lat="35.7745116" lon="-78.8444142"/>
      <trkpt lat="35.7745940" lon="-78.8436304"/>
      <trkpt lat="35.7745461" lon="-78.8435554"/>
      <trkpt lat="35.7745056" lon="-78.8430792"/>
      <trkpt lat="35.7745203" lon="-78.8430119"/>
      <trkpt lat="35.7745379" lon="-78.8429752"/>
      <trkpt lat="35.7745845" lon="-78.8429318"/>
      <trkpt lat="35.7748223" lon="-78.8428106"/>
      <trkpt lat="35.7750800" lon="-78.8426559"/>
      <trkpt lat="35.7752072" lon="-78.8425675"/>
      <trkpt lat="35.7753874" lon="-78.8424182"/>
      <trkpt lat="35.7754758" lon="-78.8423715"/>
      <trkpt lat="35.7755768" lon="-78.8423510"/>
      <trkpt lat="35.7756131" lon="-78.8423510"/>
      <trkpt lat="35.7757551" lon="-78.8423500"/>
      <trkpt lat="35.7759458" lon="-78.8423437"/>
      <trkpt lat="35.7760923" lon="-78.8423578"/>
      <trkpt lat="35.7762521" lon="-78.8423684"/>
      <trkpt lat="35.7764342" lon="-78.8423768"/>
      <trkpt lat="35.7764795" lon="-78.8423602"/>
      <trkpt lat="35.7765228" lon="-78.8423153"/>
      <trkpt lat="35.7761988" lon="-78.8419974"/>
      <trkpt lat="35.7762499" lon="-78.8419264"/>
      <trkpt lat="35.7762941" lon="-78.8418667"/>
      <trkpt lat="35.7762998" lon="-78.8418620"/>
    </trkseg>
  </trk>
  <trk>
    <name>White Oak Creek Greenway</name>
    <trkseg>
      <trkpt lat="35.7783123" lon="-78.8361128"/>
      <trkpt lat="35.7782497" lon="-78.8359640"/>
      <trkpt lat="35.7781940" lon="-78.8357580"/>
      <trkpt lat="35.7781801" lon="-78.8355091"/>
      <trkpt lat="35.7781244" lon="-78.8354147"/>
    </trkseg>
  </trk>
  <trk>
    <name>White Oak Creek Greenway</name>
    <trkseg>
      <trkpt lat="35.7738582" lon="-78.8462051"/>
      <trkpt lat="35.7738636" lon="-78.8461184"/>
      <trkpt lat="35.7738747" lon="-78.8459933"/>
      <trkpt lat="35.7738845" lon="-78.8459185"/>
    </trkseg>
  </trk>
</gpx>